IRIDIUM 154             
1 43574U 18061F   25351.41484463  .00000137  00000+0  41761-4 0  9992
2 43574  86.3981 132.8074 0002022  92.3856 267.7571 14.34217091387357
IRIDIUM 163             
1 43575U 18061G   25351.46558438  .00000138  00000+0  42194-4 0  9994
2 43575  86.3976 132.7073 0001854  95.4560 264.6847 14.34216690387332
IRIDIUM 156             
1 43576U 18061H   25351.64951960  .00000239  00000+0  78158-4 0  9993
2 43576  86.3977 132.6374 0002138  99.2850 260.8587 14.34216223387350
IRIDIUM 164             
1 43577U 18061J   25351.49095721 -.00000638  00000+0 -23507-3 0  9993
2 43577  86.3984 132.7412 0002082  89.1277 271.0157 14.34211210387372
IRIDIUM 159             
1 43578U 18061K   25351.45924253  .00000180  00000+0  57278-4 0  9994
2 43578  86.3978 132.6949 0001972  90.9720 269.1702 14.34217044387331
IRIDIUM 180             
1 43922U 19002A   25351.59827587  .00000080  00000+0  21427-4 0  9996
2 43922  86.3966  69.5103 0001971  94.7361 265.4060 14.34217463362966
IRIDIUM 176             
1 43923U 19002B   25351.61726022  .00000866  00000+0  13340-3 0  9998
2 43923  86.6086  69.4722 0002338  95.6739 264.4744 14.72254240372534
IRIDIUM 168             
1 43924U 19002C   25351.59192740  .00000077  00000+0  20548-4 0  9993
2 43924  86.3965  69.5852 0002061  98.9861 261.1568 14.34214902362949
IRIDIUM 173             
1 43925U 19002D   25351.57924133  .00000254  00000+0  83722-4 0  9991
2 43925  86.3964  69.4867 0002056 101.9878 258.1548 14.34219805362920
IRIDIUM 169             
1 43926U 19002E   25351.57257728  .00000332  00000+0  10196-3 0  9992
2 43926  86.4225 101.1412 0002247 125.4260 234.7148 14.38608779364115
IRIDIUM 172             
1 43927U 19002F   25351.64266747  .00000200  00000+0  64340-4 0  9997
2 43927  86.3964  69.4675 0001948  93.3192 266.8227 14.34215080362944
IRIDIUM 175             
1 43928U 19002G   25351.54456706  .00000796  00000+0  12220-3 0  9992
2 43928  86.1499  11.6362 0003220  87.4589 272.6997 14.72244120372519
IRIDIUM 171             
1 43929U 19002H   25351.62364918 -.00000295  00000+0 -11255-3 0  9998
2 43929  86.3971  69.7618 0002273  98.4677 261.6777 14.34215244362934
IRIDIUM 170             
1 43930U 19002J   25351.62344235  .00000878  00000+0  13535-3 0  9998
2 43930  86.6085  69.4732 0002314  90.9207 269.2276 14.72249072372545
IRIDIUM 167             
1 43931U 19002K   25351.61730471  .00000171  00000+0  54079-4 0  9994
2 43931  86.3965  69.4991 0002521 103.7259 256.4218 14.34217723362939
IRIDIUM 181             
1 56726U 23068S   25351.46345586  .00000360  00000+0  10085-3 0  9997
2 56726  86.4515 132.7530 0002373  84.0373 276.1099 14.43310335136223
IRIDIUM 177             
1 56727U 23068T   25351.60948311  .00001103  00000+0  14168-3 0  9991
2 56727  86.1965  55.0173 0002247  85.3638 274.7839 14.80219627139501
IRIDIUM 174             
1 56728U 23068U   25351.61106686  .00000564  00000+0  85621-4 0  9997
2 56728  86.6091  69.6071 0002041  89.7244 270.4207 14.72242254139301
IRIDIUM 178             
1 56729U 23068V   25351.59852888  .00001284  00000+0  16549-3 0  9999
2 56729  86.6542 101.2692 0002512  96.2445 263.9063 14.80248888139501
IRIDIUM 179             
1 56730U 23068W   25351.39038941  .00001260  00000+0  16238-3 0  9994
2 56730  86.6782 109.7932 0002400  88.9991 271.1506 14.80236317139472
