OBJECT_NAME,OBJECT_ID,EPOCH,MEAN_MOTION,ECCENTRICITY,INCLINATION,RA_OF_ASC_NODE,ARG_OF_PERICENTER,MEAN_ANOMALY,EPHEMERIS_TYPE,CLASSIFICATION_TYPE,NORAD_CAT_ID,ELEMENT_SET_NO,REV_AT_EPOCH,BSTAR,MEAN_MOTION_DOT,MEAN_MOTION_DDOT
IRIDIUM 154,2018-061F,2025-12-17T09:57:22.576032,14.34217091,.00020226,86.3981,132.8074,92.3856,267.7571,0,U,43574,999,38735,.41760517E-4,.137E-5,0
IRIDIUM 163,2018-061G,2025-12-17T11:10:26.490432,14.34216690,.00018541,86.3976,132.7073,95.4560,264.6847,0,U,43575,999,38733,.42193861E-4,.138E-5,0
IRIDIUM 156,2018-061H,2025-12-17T15:35:18.493440,14.34216223,.00021383,86.3977,132.6374,99.2850,260.8587,0,U,43576,999,38735,.78158233E-4,.239E-5,0
IRIDIUM 164,2018-061J,2025-12-17T11:46:58.702944,14.34211210,.0002082,86.3984,132.7412,89.1277,271.0157,0,U,43577,999,38737,-.23506575E-3,-.638E-5,0
IRIDIUM 159,2018-061K,2025-12-17T11:01:18.554592,14.34217044,.0001972,86.3978,132.6949,90.9720,269.1702,0,U,43578,999,38733,.57277603E-4,.18E-5,0
IRIDIUM 180,2019-002A,2025-12-17T14:21:31.035168,14.34217463,.00019716,86.3966,69.5103,94.7361,265.4060,0,U,43922,999,36296,.21427409E-4,.8E-6,0
IRIDIUM 176,2019-002B,2025-12-17T14:48:51.283008,14.72254240,.00023383,86.6086,69.4722,95.6739,264.4744,0,U,43923,999,37253,.13340405E-3,.866E-5,0
IRIDIUM 168,2019-002C,2025-12-17T14:12:22.527360,14.34214902,.00020616,86.3965,69.5852,98.9861,261.1568,0,U,43924,999,36294,.2054787E-4,.77E-6,0
IRIDIUM 173,2019-002D,2025-12-17T13:54:06.450912,14.34219805,.00020562,86.3964,69.4867,101.9878,258.1548,0,U,43925,999,36292,.83721916E-4,.254E-5,0
IRIDIUM 169,2019-002E,2025-12-17T13:44:30.676992,14.38608779,.0002247,86.4225,101.1412,125.4260,234.7148,0,U,43926,999,36411,.10195551E-3,.332E-5,0
IRIDIUM 172,2019-002F,2025-12-17T15:25:26.469408,14.34215080,.00019487,86.3964,69.4675,93.3192,266.8227,0,U,43927,999,36294,.64339658E-4,.2E-5,0
IRIDIUM 175,2019-002G,2025-12-17T13:04:10.593984,14.72244120,.00032208,86.1499,11.6362,87.4589,272.6997,0,U,43928,999,37251,.12219548E-3,.796E-5,0
IRIDIUM 171,2019-002H,2025-12-17T14:58:03.289152,14.34215244,.00022737,86.3971,69.7618,98.4677,261.6777,0,U,43929,999,36293,-.11255133E-3,-.295E-5,0
IRIDIUM 170,2019-002J,2025-12-17T14:57:45.419040,14.72249072,.00023146,86.6085,69.4732,90.9207,269.2276,0,U,43930,999,37254,.13534609E-3,.878E-5,0
IRIDIUM 167,2019-002K,2025-12-17T14:48:55.126944,14.34217723,.00025215,86.3965,69.4991,103.7259,256.4218,0,U,43931,999,36293,.54079414E-4,.171E-5,0
IRIDIUM 181,2023-068S,2025-12-17T11:07:22.586304,14.43310335,.00023737,86.4515,132.7530,84.0373,276.1099,0,U,56726,999,13622,.10085397E-3,.36E-5,0
IRIDIUM 177,2023-068T,2025-12-17T14:37:39.340704,14.80219627,.00022474,86.1965,55.0173,85.3638,274.7839,0,U,56727,999,13950,.14167521E-3,.1103E-4,0
IRIDIUM 174,2023-068U,2025-12-17T14:39:56.176704,14.72242254,.00020413,86.6091,69.6071,89.7244,270.4207,0,U,56728,999,13930,.85621229E-4,.564E-5,0
IRIDIUM 178,2023-068V,2025-12-17T14:21:52.895232,14.80248888,.0002512,86.6542,101.2692,96.2445,263.9063,0,U,56729,999,13950,.16548638E-3,.1284E-4,0
IRIDIUM 179,2023-068W,2025-12-17T09:22:09.645024,14.80236317,.00024001,86.6782,109.7932,88.9991,271.1506,0,U,56730,999,13947,.1623843E-3,.126E-4,0
